{
    "links": {
        "self": "http://www.neowsapp.com/rest/v1/neo/54054325?api_key=iIulBulltgU6a56xZRHN4H3l9WmuAYTsLGpBGhQ2"
    },
    "id": "54054325",
    "neo_reference_id": "54054325",
    "name": "(2020 RT6)",
    "designation": "2020 RT6",
    "nasa_jpl_url": "http://ssd.jpl.nasa.gov/sbdb.cgi?sstr=54054325",
    "absolute_magnitude_h": 24.195,
    "estimated_diameter": {
        "kilometers": {
            "estimated_diameter_min": 0.0385083559,
            "estimated_diameter_max": 0.0861073014
        },
        "meters": {
            "estimated_diameter_min": 38.5083558672,
            "estimated_diameter_max": 86.1073014209
        },
        "miles": {
            "estimated_diameter_min": 0.0239279756,
            "estimated_diameter_max": 0.05350458
        },
        "feet": {
            "estimated_diameter_min": 126.3397542634,
            "estimated_diameter_max": 282.5042787936
        }
    },
    "is_potentially_hazardous_asteroid": false,
    "close_approach_data": [
        {
            "close_approach_date": "2020-09-09",
            "close_approach_date_full": "2020-Sep-09 13:46",
            "epoch_date_close_approach": 1599659160000,
            "relative_velocity": {
                "kilometers_per_second": "12.4553709447",
                "kilometers_per_hour": "44839.3354009189",
                "miles_per_hour": "27861.4192661988"
            },
            "miss_distance": {
                "astronomical": "0.2178317501",
                "lunar": "84.7365507889",
                "kilometers": "32587165.833332287",
                "miles": "20248725.9029360806"
            },
            "orbiting_body": "Earth"
        }
    ],
    "orbital_data": {
        "orbit_id": "1",
        "orbit_determination_date": "2020-09-15 20:12:14",
        "first_observation_date": "2020-09-13",
        "last_observation_date": "2020-09-15",
        "data_arc_in_days": 2,
        "observations_used": 12,
        "orbit_uncertainty": "9",
        "minimum_orbit_intersection": ".185535",
        "jupiter_tisserand_invariant": "4.895",
        "epoch_osculation": "2459106.5",
        "eccentricity": ".1690705124249124",
        "semi_major_axis": "1.300801326350418",
        "inclination": "24.72013799321086",
        "ascending_node_longitude": "342.8155703864091",
        "orbital_period": "541.8946751260198",
        "perihelion_distance": "1.080874179541347",
        "perihelion_argument": "73.44588041804046",
        "aphelion_distance": "1.520728473159488",
        "perihelion_time": "2459186.208242224247",
        "mean_anomaly": "307.0469659181357",
        "mean_motion": ".6643357399964864",
        "equinox": "J2000",
        "orbit_class": {
            "orbit_class_type": "AMO",
            "orbit_class_description": "Near-Earth asteroid orbits similar to that of 1221 Amor",
            "orbit_class_range": "1.017 AU < q (perihelion) < 1.3 AU"
        }
    },
    "is_sentry_object": false
}